STARLINK-1671_new
1 16554C 20070Y   21326.14236951 -.00014183  00000-0 -95047-3 0  3269
2 16554  53.0538   3.1068 0001677  57.0483 100.2967 15.06406075    16
STARLINK-1671_old
1 26554C 20070Y   21325.16945723  .00001274  00000-0  85368-4 0  3254
2 26554  53.0534   7.4747 0001679  59.9569 218.3184 15.06399135    11
